{
  "type": "FeatureCollection",
  "features": [
    {
      "type": "Feature",
      "properties": {
        "norad_id": 43262,
        "name": "GAOFEN-1 04",
        "group": "resource",
        "lat": 1.913492537762853,
        "lon": -122.09669652042854,
        "alt_km": 643.5116943261191,
        "timestamp": "2025-12-25T19:00:39.005840+00:00",
        "meta_object_name": "GAOFEN-1 04",
        "meta_object_id": "2018-031D",
        "meta_epoch": "2025-12-25T06:49:18.461280",
        "meta_mean_motion": 14.76432559,
        "meta_eccentricity": 5.298e-05,
        "meta_inclination": 98.0787,
        "meta_ra_of_asc_node": 57.1235,
        "meta_arg_of_pericenter": 65.6143,
        "meta_mean_anomaly": 294.5122,
        "meta_ephemeris_type": 0,
        "meta_classification_type": "U",
        "meta_norad_cat_id": 43262,
        "meta_element_set_no": 999,
        "meta_rev_at_epoch": 41702,
        "meta_bstar": 0.00020124958,
        "meta_mean_motion_dot": 1.348e-05,
        "meta_mean_motion_ddot": 0,
        "tle_line1": "1 43262U 18031D   25359.28424145  .00001348  00000+0  20125-3 0  9992",
        "tle_line2": "2 43262  98.0787  57.1235 0000529  65.6143 294.5122 14.76432559417027"
      },
      "geometry": {
        "type": "Point",
        "coordinates": [
          -122.09669652042854,
          1.913492537762853
        ]
      }
    },
    {
      "type": "Feature",
      "properties": {
        "norad_id": 43437,
        "name": "SENTINEL-3B",
        "group": "resource",
        "lat": 6.9445837437333005,
        "lon": -114.15153091666518,
        "alt_km": 804.535683559152,
        "timestamp": "2025-12-25T19:00:39.005851+00:00",
        "meta_object_name": "SENTINEL-3B",
        "meta_object_id": "2018-039A",
        "meta_epoch": "2025-12-25T03:03:19.264320",
        "meta_mean_motion": 14.26738745,
        "meta_eccentricity": 0.00015924,
        "meta_inclination": 98.625,
        "meta_ra_of_asc_node": 64.1341,
        "meta_arg_of_pericenter": 89.4651,
        "meta_mean_anomaly": 270.6712,
        "meta_ephemeris_type": 0,
        "meta_classification_type": "U",
        "meta_norad_cat_id": 43437,
        "meta_element_set_no": 999,
        "meta_rev_at_epoch": 39930,
        "meta_bstar": 7.8049865e-05,
        "meta_mean_motion_dot": 1.45e-06,
        "meta_mean_motion_ddot": 0,
        "tle_line1": "1 43437U 18039A   25359.12730630  .00000145  00000+0  78050-4 0  9991",
        "tle_line2": "2 43437  98.6250  64.1341 0001592  89.4651 270.6712 14.26738745399308"
      },
      "geometry": {
        "type": "Point",
        "coordinates": [
          -114.15153091666518,
          6.9445837437333005
        ]
      }
    },
    {
      "type": "Feature",
      "properties": {
        "norad_id": 43461,
        "name": "GAOFEN-5 01",
        "group": "resource",
        "lat": -56.91340222225052,
        "lon": -23.847963326937354,
        "alt_km": 698.6874283208144,
        "timestamp": "2025-12-25T19:00:39.005861+00:00",
        "meta_object_name": "GAOFEN-5 01",
        "meta_object_id": "2018-043A",
        "meta_epoch": "2025-12-24T20:15:17.532288",
        "meta_mean_motion": 14.60422427,
        "meta_eccentricity": 5.289e-05,
        "meta_inclination": 98.4345,
        "meta_ra_of_asc_node": 322.0236,
        "meta_arg_of_pericenter": 244.9883,
        "meta_mean_anomaly": 115.1262,
        "meta_ephemeris_type": 0,
        "meta_classification_type": "U",
        "meta_norad_cat_id": 43461,
        "meta_element_set_no": 999,
        "meta_rev_at_epoch": 40624,
        "meta_bstar": 0.00010643871,
        "meta_mean_motion_dot": 4.67e-06,
        "meta_mean_motion_ddot": 0,
        "tle_line1": "1 43461U 18043A   25358.84395292  .00000467  00000+0  10644-3 0  9993",
        "tle_line2": "2 43461  98.4345 322.0236 0000528 244.9883 115.1262 14.60422427406240"
      },
      "geometry": {
        "type": "Point",
        "coordinates": [
          -23.847963326937354,
          -56.91340222225052
        ]
      }
    },
    {
      "type": "Feature",
      "properties": {
        "norad_id": 43484,
        "name": "GAOFEN-6",
        "group": "resource",
        "lat": -24.72220316386902,
        "lon": 67.23878060750442,
        "alt_km": 639.9948826286436,
        "timestamp": "2025-12-25T19:00:39.005871+00:00",
        "meta_object_name": "GAOFEN-6",
        "meta_object_id": "2018-048A",
        "meta_epoch": "2025-12-25T07:44:20.198400",
        "meta_mean_motion": 14.76587189,
        "meta_eccentricity": 0.00125477,
        "meta_inclination": 97.8012,
        "meta_ra_of_asc_node": 63.166,
        "meta_arg_of_pericenter": 26.203,
        "meta_mean_anomaly": 333.9813,
        "meta_ephemeris_type": 0,
        "meta_classification_type": "U",
        "meta_norad_cat_id": 43484,
        "meta_element_set_no": 999,
        "meta_rev_at_epoch": 40773,
        "meta_bstar": 9.7806148e-05,
        "meta_mean_motion_dot": 6.34e-06,
        "meta_mean_motion_ddot": 0,
        "tle_line1": "1 43484U 18048A   25359.32245600  .00000634  00000+0  97806-4 0  9996",
        "tle_line2": "2 43484  97.8012  63.1660 0012547  26.2030 333.9813 14.76587189407733"
      },
      "geometry": {
        "type": "Point",
        "coordinates": [
          67.23878060750442,
          -24.72220316386902
        ]
      }
    },
    {
      "type": "Feature",
      "properties": {
        "norad_id": 43585,
        "name": "GAOFEN-11 01",
        "group": "resource",
        "lat": -41.77890080710373,
        "lon": 69.06182565175524,
        "alt_km": 423.75724073633137,
        "timestamp": "2025-12-25T19:00:39.005882+00:00",
        "meta_object_name": "GAOFEN-11 01",
        "meta_object_id": "2018-063A",
        "meta_epoch": "2025-12-25T06:47:38.208768",
        "meta_mean_motion": 15.49573324,
        "meta_eccentricity": 0.00038717,
        "meta_inclination": 97.1535,
        "meta_ra_of_asc_node": 62.1141,
        "meta_arg_of_pericenter": 248.3847,
        "meta_mean_anomaly": 111.6992,
        "meta_ephemeris_type": 0,
        "meta_classification_type": "U",
        "meta_norad_cat_id": 43585,
        "meta_element_set_no": 999,
        "meta_rev_at_epoch": 41336,
        "meta_bstar": 0.00037543759,
        "meta_mean_motion_dot": 0.00020666,
        "meta_mean_motion_ddot": 0,
        "tle_line1": "1 43585U 18063A   25359.28308112  .00020666  00000+0  37544-3 0  9997",
        "tle_line2": "2 43585  97.1535  62.1141 0003871 248.3847 111.6992 15.49573324413366"
      },
      "geometry": {
        "type": "Point",
        "coordinates": [
          69.06182565175524,
          -41.77890080710373
        ]
      }
    },
    {
      "type": "Feature",
      "properties": {
        "norad_id": 43613,
        "name": "ICESAT-2",
        "group": "resource",
        "lat": 40.827665400303495,
        "lon": 65.99307780296044,
        "alt_km": 476.1832112661841,
        "timestamp": "2025-12-25T19:00:39.005897+00:00",
        "meta_object_name": "ICESAT-2",
        "meta_object_id": "2018-070A",
        "meta_epoch": "2025-12-25T05:49:56.539200",
        "meta_mean_motion": 15.28235855,
        "meta_eccentricity": 0.0003076,
        "meta_inclination": 92.0036,
        "meta_ra_of_asc_node": 244.1117,
        "meta_arg_of_pericenter": 109.5687,
        "meta_mean_anomaly": 250.5895,
        "meta_ephemeris_type": 0,
        "meta_classification_type": "U",
        "meta_norad_cat_id": 43613,
        "meta_element_set_no": 999,
        "meta_rev_at_epoch": 40589,
        "meta_bstar": 0.00047886213,
        "meta_mean_motion_dot": 0.00013176,
        "meta_mean_motion_ddot": 0,
        "tle_line1": "1 43613U 18070A   25359.24301550  .00013176  00000+0  47886-3 0  9990",
        "tle_line2": "2 43613  92.0036 244.1117 0003076 109.5687 250.5895 15.28235855405895"
      },
      "geometry": {
        "type": "Point",
        "coordinates": [
          65.99307780296044,
          40.827665400303495
        ]
      }
    },
    {
      "type": "Feature",
      "properties": {
        "norad_id": 43719,
        "name": "HYSIS",
        "group": "resource",
        "lat": 69.7263156435553,
        "lon": -94.8929102398672,
        "alt_km": 626.3688189070135,
        "timestamp": "2025-12-25T19:00:39.005909+00:00",
        "meta_object_name": "HYSIS",
        "meta_object_id": "2018-096A",
        "meta_epoch": "2025-12-25T07:09:10.543680",
        "meta_mean_motion": 14.78679546,
        "meta_eccentricity": 8.33e-05,
        "meta_inclination": 98.0078,
        "meta_ra_of_asc_node": 62.2137,
        "meta_arg_of_pericenter": 58.3366,
        "meta_mean_anomaly": 301.7926,
        "meta_ephemeris_type": 0,
        "meta_classification_type": "U",
        "meta_norad_cat_id": 43719,
        "meta_element_set_no": 999,
        "meta_rev_at_epoch": 38172,
        "meta_bstar": 0.00022771532,
        "meta_mean_motion_dot": 1.617e-05,
        "meta_mean_motion_ddot": 0,
        "tle_line1": "1 43719U 18096A   25359.29803870  .00001617  00000+0  22772-3 0  9996",
        "tle_line2": "2 43719  98.0078  62.2137 0000833  58.3366 301.7926 14.78679546381720"
      },
      "geometry": {
        "type": "Point",
        "coordinates": [
          -94.8929102398672,
          69.7263156435553
        ]
      }
    }
  ]
}